{"type":"Feature","properties":{"VILLCODE":"10015060011","COUNTYNAME":"花蓮縣","TOWNNAME":"壽豐鄉","VILLNAME":"志學村","VILLENG":"Zhixue Vil.","COUNTYID":"U","COUNTYCODE":"10015","TOWNID":"U06","TOWNCODE":"10015060","TOWNENG":"Shoufeng Township","COUNTYENG":"Hualien County","source":"https://cdn.jsdelivr.net/npm/taiwan-atlas@2021.9.20/villages-10t.json"},"geometry":{"type":"MultiPolygon","coordinates":[[[[121.51498847558285,23.90019947286115],[121.51561978271303,23.90303229303125],[121.51707178911244,23.905332206436672],[121.51713491982545,23.906033399548082],[121.51568291342605,23.907519928944275],[121.51543039057398,23.908445503851336],[121.51669300483434,23.911025894501325],[121.51786092302515,23.913998953293703],[121.5195023215636,23.91590619855674],[121.52120685081509,23.92005726177629],[121.52205911544083,23.921571838896934],[121.52303764149259,23.924152229546927],[121.52445808253549,23.924993661280617],[121.52641513463904,23.925582663494204],[121.53001358528104,23.927041145165937],[121.5327597712973,23.927994767797454],[121.53588474159167,23.92872400863332],[121.53755770548663,23.927742338277348],[121.54314477358868,23.926424095227894],[121.54604878638749,23.925947283912137],[121.54841618812566,23.926115570258872],[121.55125707021143,23.925330233974094],[121.55233029233274,23.92443270679149],[121.55390856015818,23.92409613409801],[121.55476082478391,23.923198606915406],[121.55911684398212,23.92067431171433],[121.56498800029276,23.917953682442057],[121.56192616071141,23.91186732623502],[121.55772796829574,23.903929820213854],[121.5572229225916,23.90247133854212],[121.5564653540354,23.902134765848643],[121.55539213191409,23.904378583805155],[121.54974193309901,23.901321381839406],[121.5528669033934,23.895263073356823],[121.53531656517451,23.88802676044707],[121.53399082020114,23.894057021205196],[121.52692018034318,23.895543550601385],[121.52581539286537,23.89674960275301],[121.51498847558285,23.90019947286115]]]]}}
